From: horizons@ssd.jpl.nasa.gov (Horizons Ephemeris System)
Subject: [Horizons] SMALL BODY #C(500@10)_T(96P/Machholz 1) (1/1)
Date: February 22, 2021 at 9:30:42 AM PST

Automated mail xmit by MAIL_REQUEST, PID= 7353 Mon Feb 22 09:30:42 2021
++++++++++++++++++++++++++++++++ (part 1 of 1)  +++++++++++++++++++++++++++++++
*******************************************************************************
JPL/HORIZONS                   96P/Machholz 1              2021-Feb-22 09:30:42
Rec #:90000903        Soln.date: 2020-Jun-02_14:02:54    # obs: 963 (2007-2017)

IAU76/J2000 helio. ecliptic osc. elements (au, days, deg., period=Julian yrs):

 EPOCH=  2454773.5 ! 2008-Nov-03.0000000 (TDB)    RMSW= n.a.
  EC= .9592074836894154   QR= .1237142323289413   TP= 2454196.1560801184
  OM= 94.35081293062883   W= 14.7463138854509     IN= 58.53858182853028
  A= 3.032767858374081    MA= 107.7407308762318   ADIST= 5.94182148441922
  PER= 5.2816177613144    N= .186614467           ANGMOM= .008468987000000001
  DAN= .12574             DDN= 3.34844            L= 102.1728765
  B= 12.5399511           MOID= .334629           TP= 2007-Apr-05.6560801184

Comet physical (GM= km^3/s^2; RAD= km):
  GM= n.a.                RAD= 3.2
  M1=  13.4     M2=  n.a.     k1=  11.25  k2= n.a.     PHCOF= n.a.

Comet non-gravitational force model (AMRAT=m^2/kg;A1-A3=au/d^2;DT=days;R0=au):
  AMRAT=  0.                                      DT=  0.
  A1= 7.035676855594E-11  A2= -1.762594765751E-12 A3= -2.102047018707E-10
Standard model:
  ALN=  .1112620426   NK=  4.6142   NM=  2.15     NN=  5.093    R0=  2.808

COMET comments 
1: soln ref.= JPL#K173/5, data arc: 2007-04-09 to 2017-10-02
2: k1=11.25;
*******************************************************************************


*******************************************************************************
Ephemeris / MAIL_REQUEST Mon Feb 22 09:30:42 2021 Pasadena, USA  / Horizons
*******************************************************************************
Target body name: 96P/Machholz 1                  {source: JPL#K173/5}
Center body name: Sun (10)                        {source: DE431}
Center-site name: BODY CENTER
*******************************************************************************
Start time      : A.D. 1990-Jan-01 00:00:00.0000 TDB
Stop  time      : A.D. 2020-Dec-31 00:00:00.0000 TDB
Step-size       : 200 steps
*******************************************************************************
Center geodetic : 0.00000000,0.00000000,0.0000000 {E-lon(deg),Lat(deg),Alt(km)}
Center cylindric: 0.00000000,0.00000000,0.0000000 {E-lon(deg),Dxy(km),Dz(km)}
Center radii    : 696000.0 x 696000.0 x 696000.0 k{Equator, meridian, pole}    
Small perturbers: Yes                             {source: SB431-N16}
Output units    : AU-D
Output type     : GEOMETRIC cartesian states
Output format   : 6 (LT, range, and range-rate)
Reference frame : Ecliptic of J2000.0
*******************************************************************************
Initial IAU76/J2000 heliocentric ecliptic osculating elements (au, days, deg.):
 EPOCH=  2454773.5 ! 2008-Nov-03.0000000 (TDB)    RMSW= n.a.                  
  EC= .9592074836894154   QR= .1237142323289413   TP= 2454196.1560801184      
  OM= 94.35081293062883   W= 14.7463138854509     IN= 58.53858182853028       
 Equivalent ICRF heliocentric equatorial cartesian coordinates (au, au/d):
  X= 8.322229546848101E-01  Y=-4.491464866968330E+00  Z=-2.722259808138627E+00
 VX= 1.323136608941809E-03 VY=-2.005952402164445E-03 VZ=-2.819544001122752E-03
Comet physical (GM= km^3/s^2; RAD= km):                                        
  GM= n.a.                RAD= 3.2                                            
  M1=  13.4     M2=  n.a.     k1=  11.25  k2= n.a.     PHCOF= n.a.            
Comet non-gravitational force model (AMRAT=m^2/kg;A1-A3=au/d^2;DT=days;R0=au): 
  AMRAT=  0.                                      DT=  0.                     
  A1= 7.035676855594E-11  A2= -1.762594765751E-12 A3= -2.102047018707E-10     
Standard model:                                                               
  ALN=  .1112620426   NK=  4.6142   NM=  2.15     NN=  5.093    R0=  2.808    
*******************************************************************************
           JDTDB,            Calendar Date (TDB),                     LT,                     RG,                     RR,
**************************************************************************************************************************
$$SOE
2450383.340000000, A.D. 1996-Oct-26 20:09:36.0000,  2.677463078731588E-03,  4.635883612937115E-01,  2.901955064157545E-02,
2450439.950000000, A.D. 1996-Dec-22 10:48:00.0000,  9.279582013748103E-03,  1.606709819237564E+00,  1.556312449068156E-02,
2450496.560000000, A.D. 1997-Feb-17 01:26:24.0000,  1.367681416836939E-02,  2.368066965478628E+00,  1.178575881123960E-02,
2450553.170000000, A.D. 1997-Apr-14 16:04:48.0000,  1.715444903608155E-02,  2.970200777260006E+00,  9.640720060787086E-03,
2450609.780000000, A.D. 1997-Jun-10 06:43:12.0000,  2.005007581141841E-02,  3.471563011667564E+00,  8.146476278716114E-03,
2450666.390000000, A.D. 1997-Aug-05 21:21:36.0000,  2.251819642709397E-02,  3.898904849090139E+00,  6.994161885429944E-03,
2450723.000000000, A.D. 1997-Oct-01 12:00:00.0000,  2.464596126762085E-02,  4.267315910842494E+00,  6.049084937964315E-03,
2450779.610000000, A.D. 1997-Nov-27 02:38:24.0000,  2.648856842131311E-02,  4.586353449650662E+00,  5.241175031503840E-03,
2450836.220000000, A.D. 1998-Jan-22 17:16:48.0000,  2.808361105908228E-02,  4.862526521283570E+00,  4.529354331310903E-03,
2450892.830000000, A.D. 1998-Mar-20 07:55:12.0000,  2.945789844939815E-02,  5.100477006682968E+00,  3.887245115768186E-03,
2450949.440000000, A.D. 1998-May-15 22:33:36.0000,  3.063113345213773E-02,  5.303616350285093E+00,  3.297031501062131E-03,
2451006.050000000, A.D. 1998-Jul-11 13:12:00.0000,  3.161812184675161E-02,  5.474508093334535E+00,  2.746184723296391E-03,
2451062.660000000, A.D. 1998-Sep-06 03:50:24.0000,  3.243012939216296E-02,  5.615102841521952E+00,  2.225272666580180E-03,
2451119.270000000, A.D. 1998-Nov-01 18:28:48.0000,  3.307567994490924E-02,  5.726876454856584E+00,  1.726817754350558E-03,
2451175.880000000, A.D. 1998-Dec-28 09:07:12.0000,  3.356108898728018E-02,  5.810922425199712E+00,  1.244782083972292E-03,
2451232.490000000, A.D. 1999-Feb-22 23:45:36.0000,  3.389088928979936E-02,  5.868025577438683E+00,  7.741657927117312E-04,
2451289.100000000, A.D. 1999-Apr-20 14:24:00.0000,  3.406807928179000E-02,  5.898705073517299E+00,  3.105111821344965E-04,
2451345.710000000, A.D. 1999-Jun-16 05:02:24.0000,  3.409422348504169E-02,  5.903231801986148E+00, -1.504762132519852E-04,
2451402.320000000, A.D. 1999-Aug-11 19:40:48.0000,  3.396953157190604E-02,  5.881642066487528E+00, -6.128255234495249E-04,
2451458.930000000, A.D. 1999-Oct-07 10:19:12.0000,  3.369292690932469E-02,  5.833749453786019E+00, -1.080413480661671E-03,
2451515.540000000, A.D. 1999-Dec-03 00:57:36.0000,  3.326200667836447E-02,  5.759137928680021E+00, -1.557545013658558E-03,
2451572.150000000, A.D. 2000-Jan-28 15:36:00.0000,  3.267285851806202E-02,  5.657130086867613E+00, -2.049214258860813E-03,
2451628.760000000, A.D. 2000-Mar-25 06:14:24.0000,  3.191981785546202E-02,  5.526745137945126E+00, -2.561108866244066E-03,
2451685.370000000, A.D. 2000-May-20 20:52:48.0000,  3.099520299816860E-02,  5.366653038104278E+00, -3.099990637852825E-03,
2451741.980000000, A.D. 2000-Jul-16 11:31:12.0000,  2.988885218074959E-02,  5.175094332201895E+00, -3.674465021787733E-03,
2451798.590000000, A.D. 2000-Sep-11 02:09:36.0000,  2.858733839560582E-02,  4.949744205939159E+00, -4.296032665700053E-03,
2451855.200000000, A.D. 2000-Nov-06 16:48:00.0000,  2.707283287190861E-02,  4.687515703339721E+00, -4.980434253040547E-03,
2451911.810000000, A.D. 2001-Jan-02 07:26:24.0000,  2.532134501199066E-02,  4.384254981182592E+00, -5.750262838953035E-03,
2451968.420000000, A.D. 2001-Feb-27 22:04:48.0000,  2.329967756470699E-02,  4.034214113612133E+00, -6.640415118856440E-03,
2452025.030000000, A.D. 2001-Apr-25 12:43:12.0000,  2.095988672089698E-02,  3.629091887401726E+00, -7.708752824776509E-03,
2452081.640000000, A.D. 2001-Jun-21 03:21:36.0000,  1.822834331937261E-02,  3.156139808482589E+00, -9.060849756789651E-03,
2452138.250000000, A.D. 2001-Aug-16 18:00:00.0000,  1.498066806444397E-02,  2.593822269388922E+00, -1.092134011278213E-02,
2452194.860000000, A.D. 2001-Oct-12 08:38:24.0000,  1.096888440635218E-02,  1.899203461498309E+00, -1.390929231442223E-02,
2452251.470000000, A.D. 2001-Dec-07 23:16:48.0000,  5.481988260022461E-03,  9.491768436631907E-01, -2.110587461134212E-02,
2452308.080000000, A.D. 2002-Feb-02 13:55:12.0000,  4.630915047884539E-03,  8.018180849598191E-01,  2.297836028603691E-02,
2452364.690000000, A.D. 2002-Mar-31 04:33:36.0000,  1.042126460547006E-02,  1.804386032223729E+00,  1.441168610704312E-02,
2452421.300000000, A.D. 2002-May-26 19:12:00.0000,  1.455301063948401E-02,  2.519775681629363E+00,  1.119596360937828E-02,
2452477.910000000, A.D. 2002-Jul-22 09:50:24.0000,  1.787441639645561E-02,  3.094859261416916E+00,  9.248280730381407E-03,
2452534.520000000, A.D. 2002-Sep-17 00:28:48.0000,  2.065924118792840E-02,  3.577036727027598E+00,  7.851488906164954E-03,
2452591.130000000, A.D. 2002-Nov-12 15:07:12.0000,  2.304101403542294E-02,  3.989427911845330E+00,  6.756532729738784E-03,
2452647.740000000, A.D. 2003-Jan-08 05:45:36.0000,  2.509761563007314E-02,  4.345517439529718E+00,  5.848982240693862E-03,
2452704.350000000, A.D. 2003-Mar-05 20:24:00.0000,  2.687929817045201E-02,  4.654006208544283E+00,  5.067088157495952E-03,
2452760.960000000, A.D. 2003-May-01 11:02:24.0000,  2.842063664972630E-02,  4.920880693380958E+00,  4.373974055179797E-03,
2452817.570000000, A.D. 2003-Jun-27 01:40:48.0000,  2.974652150359074E-02,  5.150450539385468E+00,  3.745920971336395E-03,
